ONEWEB-0128             
1 47274U 20100S   25190.87856037 -.00000117  00000+0 -36178-3 0  9996
2 47274  87.8871  58.7746 0002061  82.0981 278.0381 13.12443441219849
ONEWEB-0129             
1 47275U 20100T   25190.93372143  .00000480  00000+0  12981-2 0  9991
2 47275  87.8865  58.7069 0002335  51.1431 308.9906 13.12443356219786
ONEWEB-0130             
1 47276U 20100U   25190.88504670 -.00000316  00000+0 -91508-3 0  9991
2 47276  87.8863  58.7174 0001903  81.3057 278.8287 13.12443352219740
ONEWEB-0131             
1 47277U 20100V   25190.88181325 -.00000238  00000+0 -69680-3 0  9999
2 47277  87.8866  58.7442 0001897  83.3868 276.7477 13.12442606219789
ONEWEB-0132             
1 47278U 20100W   25190.91100328  .00000131  00000+0  32872-3 0  9991
2 47278  87.8869  58.7395 0001756  88.3980 271.7350 13.12445656219686
ONEWEB-0133             
1 47279U 20100X   25190.69838417  .00000463  00000+0  12520-2 0  9999
2 47279  87.8860  58.7591 0001946  83.9544 276.1806 13.12443505219815
ONEWEB-0134             
1 47280U 20100Y   25190.89640379 -.00000352  00000+0 -10125-2 0  9999
2 47280  87.8858  58.7032 0002063  78.9864 281.1497 13.12444236219818
ONEWEB-0135             
1 47281U 20100Z   25190.86721231  .00000252  00000+0  66485-3 0  9992
2 47281  87.8863  58.7471 0002285  82.3186 277.8202 13.12442980219836
